{"type": "FeatureCollection", "features": [ {"type": "Feature", "properties": {"norad_id": 66599, "name": "STARLINK-35930", "group": "last-30-days", "lat": -40.82541581926764, "lon": 102.96218112758211, "alt_km": 417.64435053224133, "timestamp": "2025-12-16T10:53:44.205348+00:00", "meta": {"OBJECT_NAME": "STARLINK-35930", "OBJECT_ID": "2025-270M", "EPOCH": "2025-12-15T21:17:54.430656", "MEAN_MOTION": 15.50589612, "ECCENTRICITY": 6.501e-05, "INCLINATION": 42.9985, "RA_OF_ASC_NODE": 174.2775, "ARG_OF_PERICENTER": 263.4139, "MEAN_ANOMALY": 96.6648, "EPHEMERIS_TYPE": 0, "CLASSIFICATION_TYPE": "U", "NORAD_CAT_ID": 66599, "ELEMENT_SET_NO": 999, "REV_AT_EPOCH": 483, "BSTAR": 0.0011625815, "MEAN_MOTION_DOT": 0.00068486, "MEAN_MOTION_DDOT": 0}, "tle": {"line1": "1 66599U 25270M   25349.88743554  .00068486  00000+0  11626-2 0  9997", "line2": "2 66599  42.9985 174.2775 0000650 263.4139  96.6648 15.50589612  4832"}}, "geometry": {"type": "Point", "coordinates": [102.96218112758211, -40.82541581926764]}}, {"type": "Feature", "properties": {"norad_id": 66600, "name": "STARLINK-35980", "group": "last-30-days", "lat": -40.312057537752295, "lon": 105.38126754855891, "alt_km": 416.14473056705447, "timestamp": "2025-12-16T10:53:44.205358+00:00", "meta": {"OBJECT_NAME": "STARLINK-35980", "OBJECT_ID": "2025-270N", "EPOCH": "2025-12-15T21:17:24.400608", "MEAN_MOTION": 15.50588266, "ECCENTRICITY": 0.00028106, "INCLINATION": 42.9988, "RA_OF_ASC_NODE": 174.2745, "ARG_OF_PERICENTER": 279.8877, "MEAN_ANOMALY": 80.1666, "EPHEMERIS_TYPE": 0, "CLASSIFICATION_TYPE": "U", "NORAD_CAT_ID": 66600, "ELEMENT_SET_NO": 999, "REV_AT_EPOCH": 473, "BSTAR": 0.0011463137, "MEAN_MOTION_DOT": 0.00067517, "MEAN_MOTION_DDOT": 0}, "tle": {"line1": "1 66600U 25270N   25349.88708797  .00067517  00000+0  11463-2 0  9993", "line2": "2 66600  42.9988 174.2745 0002810 279.8877  80.1666 15.50588266  4736"}}, "geometry": {"type": "Point", "coordinates": [105.38126754855891, -40.312057537752295]}}, {"type": "Feature", "properties": {"norad_id": 66601, "name": "STARLINK-35978", "group": "last-30-days", "lat": -31.368703824040555, "lon": 31.966043196890773, "alt_km": 445.9358344367929, "timestamp": "2025-12-16T10:53:44.205369+00:00", "meta": {"OBJECT_NAME": "STARLINK-35978", "OBJECT_ID": "2025-270P", "EPOCH": "2025-12-15T22:00:01.999584", "MEAN_MOTION": 15.40619116, "ECCENTRICITY": 0.00014239, "INCLINATION": 42.9991, "RA_OF_ASC_NODE": 174.1995, "ARG_OF_PERICENTER": 250.9063, "MEAN_ANOMALY": 235.2358, "EPHEMERIS_TYPE": 0, "CLASSIFICATION_TYPE": "U", "NORAD_CAT_ID": 66601, "ELEMENT_SET_NO": 999, "REV_AT_EPOCH": 475, "BSTAR": 0.0020462453, "MEAN_MOTION_DOT": 0.0008591, "MEAN_MOTION_DDOT": 0}, "tle": {"line1": "1 66601U 25270P   25349.91668981  .00085910  00000+0  20462-2 0  9994", "line2": "2 66601  42.9991 174.1995 0001423 250.9063 235.2358 15.40619116  4754"}}, "geometry": {"type": "Point", "coordinates": [31.966043196890773, -31.368703824040555]}}, {"type": "Feature", "properties": {"norad_id": 66602, "name": "STARLINK-36050", "group": "last-30-days", "lat": 16.62416299674253, "lon": -27.404746392067683, "alt_km": 441.7796841708423, "timestamp": "2025-12-16T10:53:44.205379+00:00", "meta": {"OBJECT_NAME": "STARLINK-36050", "OBJECT_ID": "2025-270Q", "EPOCH": "2025-12-15T22:00:01.999584", "MEAN_MOTION": 15.40659907, "ECCENTRICITY": 0.00017679, "INCLINATION": 42.9996, "RA_OF_ASC_NODE": 174.38, "ARG_OF_PERICENTER": 264.1735, "MEAN_ANOMALY": 147.3104, "EPHEMERIS_TYPE": 0, "CLASSIFICATION_TYPE": "U", "NORAD_CAT_ID": 66602, "ELEMENT_SET_NO": 999, "REV_AT_EPOCH": 481, "BSTAR": 0.0016272291, "MEAN_MOTION_DOT": 0.00068189, "MEAN_MOTION_DDOT": 0}, "tle": {"line1": "1 66602U 25270Q   25349.91668981  .00068189  00000+0  16272-2 0  9998", "line2": "2 66602  42.9996 174.3800 0001767 264.1735 147.3104 15.40659907  4812"}}, "geometry": {"type": "Point", "coordinates": [-27.404746392067683, 16.62416299674253]}}, {"type": "Feature", "properties": {"norad_id": 66603, "name": "STARLINK-36048", "group": "last-30-days", "lat": -42.86223264334767, "lon": 75.83578910439498, "alt_km": 441.6681508228621, "timestamp": "2025-12-16T10:53:44.205389+00:00", "meta": {"OBJECT_NAME": "STARLINK-36048", "OBJECT_ID": "2025-270R", "EPOCH": "2025-12-15T22:00:01.999584", "MEAN_MOTION": 15.44642912, "ECCENTRICITY": 0.00011241, "INCLINATION": 42.9994, "RA_OF_ASC_NODE": 174.1242, "ARG_OF_PERICENTER": 286.1135, "MEAN_ANOMALY": 231.1016, "EPHEMERIS_TYPE": 0, "CLASSIFICATION_TYPE": "U", "NORAD_CAT_ID": 66603, "ELEMENT_SET_NO": 999, "REV_AT_EPOCH": 481, "BSTAR": -0.047799163, "MEAN_MOTION_DOT": -0.02029197, "MEAN_MOTION_DDOT": 0}, "tle": {"line1": "1 66603U 25270R   25349.91668981 -.02029197  00000+0 -47799-1 0  9996", "line2": "2 66603  42.9994 174.1242 0001124 286.1135 231.1016 15.44642912  4810"}}, "geometry": {"type": "Point", "coordinates": [75.83578910439498, -42.86223264334767]}}, {"type": "Feature", "properties": {"norad_id": 66604, "name": "STARLINK-35977", "group": "last-30-days", "lat": -37.69213983587025, "lon": 114.91886027029541, "alt_km": 416.80232028334285, "timestamp": "2025-12-16T10:53:44.205399+00:00", "meta": {"OBJECT_NAME": "STARLINK-35977", "OBJECT_ID": "2025-270S", "EPOCH": "2025-12-15T05:47:51.952128", "MEAN_MOTION": 15.50594552, "ECCENTRICITY": 0.00014478, "INCLINATION": 42.9989, "RA_OF_ASC_NODE": 178.0309, "ARG_OF_PERICENTER": 284.8784, "MEAN_ANOMALY": 75.1916, "EPHEMERIS_TYPE": 0, "CLASSIFICATION_TYPE": "U", "NORAD_CAT_ID": 66604, "ELEMENT_SET_NO": 999, "REV_AT_EPOCH": 473, "BSTAR": 0.00084362823, "MEAN_MOTION_DOT": 0.00049491, "MEAN_MOTION_DDOT": 0}, "tle": {"line1": "1 66604U 25270S   25349.24157352  .00049491  00000+0  84363-3 0  9993", "line2": "2 66604  42.9989 178.0309 0001447 284.8784  75.1916 15.50594552  4734"}}, "geometry": {"type": "Point", "coordinates": [114.91886027029541, -37.69213983587025]}}, {"type": "Feature", "properties": {"norad_id": 66605, "name": "STARLINK-36052", "group": "last-30-days", "lat": -37.0050466515855, "lon": 116.94130092951994, "alt_km": 416.6561942885228, "timestamp": "2025-12-16T10:53:44.205412+00:00", "meta": {"OBJECT_NAME": "STARLINK-36052", "OBJECT_ID": "2025-270T", "EPOCH": "2025-12-15T21:14:56.294592", "MEAN_MOTION": 15.5060937, "ECCENTRICITY": 0.00021568, "INCLINATION": 42.9952, "RA_OF_ASC_NODE": 174.2621, "ARG_OF_PERICENTER": 258.8815, "MEAN_ANOMALY": 101.1803, "EPHEMERIS_TYPE": 0, "CLASSIFICATION_TYPE": "U", "NORAD_CAT_ID": 66605, "ELEMENT_SET_NO": 999, "REV_AT_EPOCH": 483, "BSTAR": 0.0010205444, "MEAN_MOTION_DOT": 0.00060057, "MEAN_MOTION_DDOT": 0}, "tle": {"line1": "1 66605U 25270T   25349.88537378  .00060057  00000+0  10205-2 0  9998", "line2": "2 66605  42.9952 174.2621 0002156 258.8815 101.1803 15.50609370  4835"}}, "geometry": {"type": "Point", "coordinates": [116.94130092951994, -37.0050466515855]}}, {"type": "Feature", "properties": {"norad_id": 66606, "name": "STARLINK-36063", "group": "last-30-days", "lat": -35.41365008962577, "lon": 121.18904713309767, "alt_km": 416.7577485152742, "timestamp": "2025-12-16T10:53:44.205422+00:00", "meta": {"OBJECT_NAME": "STARLINK-36063", "OBJECT_ID": "2025-270U", "EPOCH": "2025-12-15T21:13:57.114912", "MEAN_MOTION": 15.5058995, "ECCENTRICITY": 0.00016969, "INCLINATION": 42.9987, "RA_OF_ASC_NODE": 174.2546, "ARG_OF_PERICENTER": 274.1989, "MEAN_ANOMALY": 85.8678, "EPHEMERIS_TYPE": 0, "CLASSIFICATION_TYPE": "U", "NORAD_CAT_ID": 66606, "ELEMENT_SET_NO": 999, "REV_AT_EPOCH": 483, "BSTAR": 0.0011009121, "MEAN_MOTION_DOT": 0.00064806, "MEAN_MOTION_DDOT": 0}, "tle": {"line1": "1 66606U 25270U   25349.88468883  .00064806  00000+0  11009-2 0  9992", "line2": "2 66606  42.9987 174.2546 0001696 274.1989  85.8678 15.50589950  4830"}}, "geometry": {"type": "Point", "coordinates": [121.18904713309767, -35.41365008962577]}}, {"type": "Feature", "properties": {"norad_id": 66607, "name": "STARLINK-35993", "group": "last-30-days", "lat": -36.23192201231505, "lon": 119.08068776354148, "alt_km": 416.8655063191636, "timestamp": "2025-12-16T10:53:44.205432+00:00", "meta": {"OBJECT_NAME": "STARLINK-35993", "OBJECT_ID": "2025-270V", "EPOCH": "2025-12-15T21:14:26.729376", "MEAN_MOTION": 15.50594365, "ECCENTRICITY": 0.00015824, "INCLINATION": 42.9986, "RA_OF_ASC_NODE": 174.2577, "ARG_OF_PERICENTER": 270.0031, "MEAN_ANOMALY": 90.0648, "EPHEMERIS_TYPE": 0, "CLASSIFICATION_TYPE": "U", "NORAD_CAT_ID": 66607, "ELEMENT_SET_NO": 999, "REV_AT_EPOCH": 473, "BSTAR": 0.0011567667, "MEAN_MOTION_DOT": 0.00068151, "MEAN_MOTION_DDOT": 0}, "tle": {"line1": "1 66607U 25270V   25349.88503159  .00068151  00000+0  11568-2 0  9996", "line2": "2 66607  42.9986 174.2577 0001582 270.0031  90.0648 15.50594365  4731"}}, "geometry": {"type": "Point", "coordinates": [119.08068776354148, -36.23192201231505]}}, {"type": "Feature", "properties": {"norad_id": 66608, "name": "STARLINK-36036", "group": "last-30-days", "lat": -34.55238613567856, "lon": 123.27050476440631, "alt_km": 416.818922354948, "timestamp": "2025-12-16T10:53:44.205446+00:00", "meta": {"OBJECT_NAME": "STARLINK-36036", "OBJECT_ID": "2025-270W", "EPOCH": "2025-12-15T21:13:27.510816", "MEAN_MOTION": 15.50590211, "ECCENTRICITY": 0.00015609, "INCLINATION": 42.9987, "RA_OF_ASC_NODE": 174.252, "ARG_OF_PERICENTER": 273.3219, "MEAN_ANOMALY": 86.7462, "EPHEMERIS_TYPE": 0, "CLASSIFICATION_TYPE": "U", "NORAD_CAT_ID": 66608, "ELEMENT_SET_NO": 999, "REV_AT_EPOCH": 467, "BSTAR": 0.0010893309, "MEAN_MOTION_DOT": 0.00064115, "MEAN_MOTION_DDOT": 0}, "tle": {"line1": "1 66608U 25270W   25349.88434619  .00064115  00000+0  10893-2 0  9997", "line2": "2 66608  42.9987 174.2520 0001560 273.3219  86.7462 15.50590211  4676"}}, "geometry": {"type": "Point", "coordinates": [123.27050476440631, -34.55238613567856]}}]}